ONEWEB-0697             
1 61603U 24188K   25053.58335648 -.00845088  00000+0 -57972+0 0  9999
2 61603  87.1128 119.3166 0002342 134.2368  40.2571 14.02837788 19636
ONEWEB-0698             
1 61604U 24188L   25053.91668981 -.00799248  00000+0 -51298+0 0  9997
2 61604  87.1431 119.2293 0005466 133.2928 319.8509 14.06357423 19458
ONEWEB-0699             
1 61605U 24188M   25053.58335648  .00221381  00000+0  61993+0 0  9991
2 61605  87.8791 131.8554 0002320 103.6567 106.5109 13.10284467 18627
ONEWEB-0700             
1 61606U 24188N   25053.61592751 -.00000439  00000+0 -12915-2 0  9990
2 61606  87.8797 131.8534 0001777  83.2081 276.9248 13.10537120 20492
ONEWEB-0701             
1 61607U 24188P   25053.58335648  .00223119  00000+0  62446+0 0  9998
2 61607  87.8809 131.8614 0002235  85.8977  38.2125 13.10308867 18829
ONEWEB-0702             
1 61608U 24188Q   25053.58335648 -.00741325  00000+0 -45289+0 0  9991
2 61608  87.1321 119.3322 0006960 135.8812 195.4010 14.08849814 19451
ONEWEB-0704             
1 61609U 24188R   25053.46925611  .00014348  00000+0  40952-1 0  9994
2 61609  87.8973 131.7761 0002263  74.3267 285.8109 13.10458405 20460
ONEWEB-0705             
1 61610U 24188S   25053.58335648  .00044553  00000+0  12657+0 0  9994
2 61610  87.8788 131.8687 0001218  60.0397  96.3119 13.10597511  5257
